[{"OBJECT_NAME":"SBIRS GEO-1 (USA 230)","OBJECT_ID":"2011-019A","EPOCH":"2023-04-26T19:59:42.809568","MEAN_MOTION":1.00272096,"ECCENTRICITY":0.0001844,"INCLINATION":2.2769,"RA_OF_ASC_NODE":38.1448,"ARG_OF_PERICENTER":358.0175,"MEAN_ANOMALY":184.0301,"EPHEMERIS_TYPE":0,"CLASSIFICATION_TYPE":"U","NORAD_CAT_ID":37481,"ELEMENT_SET_NO":999,"REV_AT_EPOCH":4389,"BSTAR":0,"MEAN_MOTION_DOT":-5.0e-8,"MEAN_MOTION_DDOT":0},{"OBJECT_NAME":"TELSTAR 14R","OBJECT_ID":"2011-021A","EPOCH":"2023-04-26T17:41:03.130656","MEAN_MOTION":1.00272826,"ECCENTRICITY":0.000245,"INCLINATION":0.0169,"RA_OF_ASC_NODE":260.83,"ARG_OF_PERICENTER":101.8862,"MEAN_ANOMALY":54.0126,"EPHEMERIS_TYPE":0,"CLASSIFICATION_TYPE":"U","NORAD_CAT_ID":37602,"ELEMENT_SET_NO":999,"REV_AT_EPOCH":4432,"BSTAR":0,"MEAN_MOTION_DOT":-2.82e-6,"MEAN_MOTION_DDOT":0},{"OBJECT_NAME":"GSAT-8","OBJECT_ID":"2011-022A","EPOCH":"2023-04-26T20:24:42.566688","MEAN_MOTION":1.00272092,"ECCENTRICITY":0.000481,"INCLINATION":0.039,"RA_OF_ASC_NODE":82.7931,"ARG_OF_PERICENTER":225.7786,"MEAN_ANOMALY":267.2629,"EPHEMERIS_TYPE":0,"CLASSIFICATION_TYPE":"U","NORAD_CAT_ID":37605,"ELEMENT_SET_NO":999,"REV_AT_EPOCH":4373,"BSTAR":0,"MEAN_MOTION_DOT":8.2e-7,"MEAN_MOTION_DDOT":0},{"OBJECT_NAME":"ST-2","OBJECT_ID":"2011-022B","EPOCH":"2023-04-26T20:34:01.377696","MEAN_MOTION":1.00272292,"ECCENTRICITY":0.0001471,"INCLINATION":0.0142,"RA_OF_ASC_NODE":226.9992,"ARG_OF_PERICENTER":176.3906,"MEAN_ANOMALY":207.7243,"EPHEMERIS_TYPE":0,"CLASSIFICATION_TYPE":"U","NORAD_CAT_ID":37606,"ELEMENT_SET_NO":999,"REV_AT_EPOCH":4374,"BSTAR":0,"MEAN_MOTION_DOT":-2.14e-6,"MEAN_MOTION_DDOT":0},{"OBJECT_NAME":"CHINASAT 10 (ZX 10)","OBJECT_ID":"2011-026A","EPOCH":"2023-04-27T14:10:59.287872","MEAN_MOTION":1.00273024,"ECCENTRICITY":0.0001629,"INCLINATION":0.0562,"RA_OF_ASC_NODE":277.0105,"ARG_OF_PERICENTER":252.3504,"MEAN_ANOMALY":9.2271,"EPHEMERIS_TYPE":0,"CLASSIFICATION_TYPE":"U","NORAD_CAT_ID":37677,"ELEMENT_SET_NO":999,"REV_AT_EPOCH":4346,"BSTAR":0,"MEAN_MOTION_DOT":-3.54e-6,"MEAN_MOTION_DDOT":0},{"OBJECT_NAME":"TIANLIAN 1-02","OBJECT_ID":"2011-032A","EPOCH":"2023-04-26T18:46:49.393632","MEAN_MOTION":1.0027062,"ECCENTRICITY":0.0085597,"INCLINATION":2.3825,"RA_OF_ASC_NODE":72.4285,"ARG_OF_PERICENTER":0.6062,"MEAN_ANOMALY":230.2276,"EPHEMERIS_TYPE":0,"CLASSIFICATION_TYPE":"U","NORAD_CAT_ID":37737,"ELEMENT_SET_NO":999,"REV_AT_EPOCH":4321,"BSTAR":0,"MEAN_MOTION_DOT":-5.1e-7,"MEAN_MOTION_DDOT":0},{"OBJECT_NAME":"GSAT-12","OBJECT_ID":"2011-034A","EPOCH":"2023-04-27T13:52:49.866816","MEAN_MOTION":0.98861642,"ECCENTRICITY":0.0001443,"INCLINATION":2.3053,"RA_OF_ASC_NODE":91.5532,"ARG_OF_PERICENTER":104.8538,"MEAN_ANOMALY":69.9692,"EPHEMERIS_TYPE":0,"CLASSIFICATION_TYPE":"U","NORAD_CAT_ID":37746,"ELEMENT_SET_NO":999,"REV_AT_EPOCH":4345,"BSTAR":0,"MEAN_MOTION_DOT":-4.3e-7,"MEAN_MOTION_DDOT":0},{"OBJECT_NAME":"SES-3","OBJECT_ID":"2011-035A","EPOCH":"2023-04-27T13:18:51.142176","MEAN_MOTION":1.00272215,"ECCENTRICITY":0.0002365,"INCLINATION":0.0242,"RA_OF_ASC_NODE":324.0757,"ARG_OF_PERICENTER":70.001,"MEAN_ANOMALY":277.9088,"EPHEMERIS_TYPE":0,"CLASSIFICATION_TYPE":"U","NORAD_CAT_ID":37748,"ELEMENT_SET_NO":999,"REV_AT_EPOCH":4319,"BSTAR":0,"MEAN_MOTION_DOT":-1.03e-6,"MEAN_MOTION_DDOT":0},{"OBJECT_NAME":"KAZSAT-2","OBJECT_ID":"2011-035B","EPOCH":"2023-04-27T01:29:42.628416","MEAN_MOTION":1.00274183,"ECCENTRICITY":0.0001023,"INCLINATION":0.0314,"RA_OF_ASC_NODE":281.1653,"ARG_OF_PERICENTER":11.343,"MEAN_ANOMALY":31.222,"EPHEMERIS_TYPE":0,"CLASSIFICATION_TYPE":"U","NORAD_CAT_ID":37749,"ELEMENT_SET_NO":999,"REV_AT_EPOCH":4306,"BSTAR":0,"MEAN_MOTION_DOT":-2.0e-6,"MEAN_MOTION_DDOT":0},{"OBJECT_NAME":"BEIDOU-2 IGSO-4","OBJECT_ID":"2011-038A","EPOCH":"2023-04-27T01:03:24.457248","MEAN_MOTION":1.00258705,"ECCENTRICITY":0.0108616,"INCLINATION":54.4842,"RA_OF_ASC_NODE":175.8868,"ARG_OF_PERICENTER":228.9532,"MEAN_ANOMALY":279.2331,"EPHEMERIS_TYPE":0,"CLASSIFICATION_TYPE":"U","NORAD_CAT_ID":37763,"ELEMENT_SET_NO":999,"REV_AT_EPOCH":4314,"BSTAR":0,"MEAN_MOTION_DOT":-5.7e-7,"MEAN_MOTION_DDOT":0},{"OBJECT_NAME":"ASTRA 1N","OBJECT_ID":"2011-041A","EPOCH":"2023-04-26T19:47:57.008832","MEAN_MOTION":1.00272753,"ECCENTRICITY":0.0005415,"INCLINATION":0.0767,"RA_OF_ASC_NODE":56.0958,"ARG_OF_PERICENTER":347.8401,"MEAN_ANOMALY":126.8168,"EPHEMERIS_TYPE":0,"CLASSIFICATION_TYPE":"U","NORAD_CAT_ID":37775,"ELEMENT_SET_NO":999,"REV_AT_EPOCH":3302,"BSTAR":0,"MEAN_MOTION_DOT":1.18e-6,"MEAN_MOTION_DDOT":0},{"OBJECT_NAME":"BSAT-3C (JCSAT-110R)","OBJECT_ID":"2011-041B","EPOCH":"2023-04-27T01:13:42.557664","MEAN_MOTION":1.0027228,"ECCENTRICITY":2.43e-5,"INCLINATION":0.0505,"RA_OF_ASC_NODE":72.5113,"ARG_OF_PERICENTER":40.1216,"MEAN_ANOMALY":230.542,"EPHEMERIS_TYPE":0,"CLASSIFICATION_TYPE":"U","NORAD_CAT_ID":37776,"ELEMENT_SET_NO":999,"REV_AT_EPOCH":4301,"BSTAR":0,"MEAN_MOTION_DOT":-3.52e-6,"MEAN_MOTION_DDOT":0},{"OBJECT_NAME":"PAKSAT-1R","OBJECT_ID":"2011-042A","EPOCH":"2023-04-27T01:55:42.742848","MEAN_MOTION":1.00277129,"ECCENTRICITY":0.0003148,"INCLINATION":0.0649,"RA_OF_ASC_NODE":91.8438,"ARG_OF_PERICENTER":328.6757,"MEAN_ANOMALY":221.2474,"EPHEMERIS_TYPE":0,"CLASSIFICATION_TYPE":"U","NORAD_CAT_ID":37779,"ELEMENT_SET_NO":999,"REV_AT_EPOCH":4277,"BSTAR":0,"MEAN_MOTION_DOT":1.52e-6,"MEAN_MOTION_DDOT":0},{"OBJECT_NAME":"CHINASAT 1A (ZX 1A)","OBJECT_ID":"2011-047A","EPOCH":"2023-04-27T12:56:28.431744","MEAN_MOTION":1.00078334,"ECCENTRICITY":0.0004024,"INCLINATION":0.75,"RA_OF_ASC_NODE":93.2378,"ARG_OF_PERICENTER":292.3438,"MEAN_ANOMALY":30.0434,"EPHEMERIS_TYPE":0,"CLASSIFICATION_TYPE":"U","NORAD_CAT_ID":37804,"ELEMENT_SET_NO":999,"REV_AT_EPOCH":4257,"BSTAR":0,"MEAN_MOTION_DOT":8.0e-8,"MEAN_MOTION_DDOT":0},{"OBJECT_NAME":"SES-2","OBJECT_ID":"2011-049A","EPOCH":"2023-04-27T03:04:22.224000","MEAN_MOTION":1.00273207,"ECCENTRICITY":0.0002487,"INCLINATION":0.0358,"RA_OF_ASC_NODE":48.937,"ARG_OF_PERICENTER":339.0022,"MEAN_ANOMALY":146.0128,"EPHEMERIS_TYPE":0,"CLASSIFICATION_TYPE":"U","NORAD_CAT_ID":37809,"ELEMENT_SET_NO":999,"REV_AT_EPOCH":4249,"BSTAR":0,"MEAN_MOTION_DOT":-1.98e-6,"MEAN_MOTION_DDOT":0},{"OBJECT_NAME":"ARABSAT-5C","OBJECT_ID":"2011-049B","EPOCH":"2023-04-27T02:27:42.698592","MEAN_MOTION":1.00272336,"ECCENTRICITY":0.0002292,"INCLINATION":0.0619,"RA_OF_ASC_NODE":32.6991,"ARG_OF_PERICENTER":80.6965,"MEAN_ANOMALY":158.3489,"EPHEMERIS_TYPE":0,"CLASSIFICATION_TYPE":"U","NORAD_CAT_ID":37810,"ELEMENT_SET_NO":999,"REV_AT_EPOCH":4240,"BSTAR":0,"MEAN_MOTION_DOT":1.22e-6,"MEAN_MOTION_DDOT":0},{"OBJECT_NAME":"EUTELSAT 7 WEST A","OBJECT_ID":"2011-051A","EPOCH":"2023-04-26T19:40:17.615712","MEAN_MOTION":1.00272043,"ECCENTRICITY":0.0002977,"INCLINATION":0.0686,"RA_OF_ASC_NODE":22.1784,"ARG_OF_PERICENTER":137.2154,"MEAN_ANOMALY":342.9296,"EPHEMERIS_TYPE":0,"CLASSIFICATION_TYPE":"U","NORAD_CAT_ID":37816,"ELEMENT_SET_NO":999,"REV_AT_EPOCH":4239,"BSTAR":0,"MEAN_MOTION_DOT":-6.2e-7,"MEAN_MOTION_DDOT":0}]
