SBIRS GEO-1 (USA 230)   
1 37481U 11019A   23116.83313437 -.00000005  00000+0  00000+0 0  9994
2 37481   2.2769  38.1448 0001844 358.0175 184.0301  1.00272096 43893
TELSTAR 14R             
1 37602U 11021A   23116.73684179 -.00000282  00000+0  00000+0 0  9992
2 37602   0.0169 260.8300 0002450 101.8862  54.0126  1.00272826 44321
GSAT-8                  
1 37605U 11022A   23116.85049267  .00000082  00000+0  00000+0 0  9999
2 37605   0.0390  82.7931 0004810 225.7786 267.2629  1.00272092 43739
ST-2                    
1 37606U 11022B   23116.85696039 -.00000214  00000+0  00000+0 0  9993
2 37606   0.0142 226.9992 0001471 176.3906 207.7243  1.00272292 43743
CHINASAT 10 (ZX 10)     
1 37677U 11026A   23117.59096398 -.00000354  00000+0  00000+0 0  9994
2 37677   0.0562 277.0105 0001629 252.3504   9.2271  1.00273024 43463
TIANLIAN 1-02           
1 37737U 11032A   23116.78251613 -.00000051  00000+0  00000+0 0  9995
2 37737   2.3825  72.4285 0085597   0.6062 230.2276  1.00270620 43215
GSAT-12                 
1 37746U 11034A   23117.57835494 -.00000043  00000+0  00000+0 0  9991
2 37746   2.3053  91.5532 0001443 104.8538  69.9692  0.98861642 43459
SES-3                   
1 37748U 11035A   23117.55475859 -.00000103  00000+0  00000+0 0  9994
2 37748   0.0242 324.0757 0002365  70.0010 277.9088  1.00272215 43199
KAZSAT-2                
1 37749U 11035B   23117.06229894 -.00000200  00000+0  00000+0 0  9995
2 37749   0.0314 281.1653 0001023  11.3430  31.2220  1.00274183 43063
BEIDOU-2 IGSO-4         
1 37763U 11038A   23117.04403307 -.00000057  00000+0  00000+0 0  9995
2 37763  54.4842 175.8868 0108616 228.9532 279.2331  1.00258705 43148
ASTRA 1N                
1 37775U 11041A   23116.82496538  .00000118  00000+0  00000+0 0  9992
2 37775   0.0767  56.0958 0005415 347.8401 126.8168  1.00272753 33023
BSAT-3C (JCSAT-110R)    
1 37776U 11041B   23117.05118701 -.00000352  00000+0  00000+0 0  9993
2 37776   0.0505  72.5113 0000243  40.1216 230.5420  1.00272280 43010
PAKSAT-1R               
1 37779U 11042A   23117.08035582  .00000152  00000+0  00000+0 0  9992
2 37779   0.0649  91.8438 0003148 328.6757 221.2474  1.00277129 42772
CHINASAT 1A (ZX 1A)     
1 37804U 11047A   23117.53921796  .00000008  00000+0  00000+0 0  9997
2 37804   0.7500  93.2378 0004024 292.3438  30.0434  1.00078334 42577
SES-2                   
1 37809U 11049A   23117.12803500 -.00000198  00000+0  00000+0 0  9992
2 37809   0.0358  48.9370 0002487 339.0022 146.0128  1.00273207 42499
ARABSAT-5C              
1 37810U 11049B   23117.10257753  .00000122  00000+0  00000+0 0  9991
2 37810   0.0619  32.6991 0002292  80.6965 158.3489  1.00272336 42408
EUTELSAT 7 WEST A       
1 37816U 11051A   23116.81964833 -.00000062  00000+0  00000+0 0  9995
2 37816   0.0686  22.1784 0002977 137.2154 342.9296  1.00272043 42391
